0 DELTA 1 DEB
1 07153U 73086DT  13283.37721309  .00000045  00000-0  70344-3 0  1979
2 07153 101.8985 318.5861 0033228 076.9236 353.8000 12.35250199798801
0 DELTA 1 DEB
1 07153U 73086DT  13286.04058539  .00000056  00000-0  79139-3 0  1999
2 07153 101.8977 321.1657 0033126 071.9708 317.5767 12.35250652799139
0 DELTA 1 DEB
1 07153U 73086DT  13287.10136543  .00000063  00000-0  84579-3 0  2004
2 07153 101.8974 322.1931 0033082 069.9853 354.7835 12.35250739799260
0 DELTA 1 DEB
1 07153U 73086DT  13288.73176633  .00000047  00000-0  71483-3 0  2011
2 07153 101.8969 323.7721 0033004 066.9175 045.0669 12.35251140799460
0 DELTA 1 DEB
1 07153U 73086DT  13289.94823186  .00000052  00000-0  75417-3 0  2025
2 07153 101.8966 324.9502 0032928 064.6092 054.6302 12.35251579799617
0 DELTA 1 DEB
1 07153U 73086DT  13291.06152057  .00000035  00000-0  62258-3 0  2034
2 07153 101.8964 326.0282 0032892 062.5154 325.3521 12.35251888799758
0 DELTA 1 DEB
1 07153U 73086DT  13292.54873639  .00000032  00000-0  59825-3 0  2048
2 07153 101.8963 327.4683 0032845 059.7245 098.8997 12.35252264799932
0 DELTA 1 DEB
1 07153U 73086DT  13293.67210353  .00000035  00000-0  62568-3 0  2053
2 07153 101.8963 328.5560 0032800 057.5910 054.4634 12.35252334800076
0 DELTA 1 DEB
1 07153U 73086DT  13294.72486390  .00000022  00000-0  51744-3 0  2067
2 07153 101.8963 329.5754 0032750 055.5783 056.0557 12.35252555800204
0 DELTA 1 DEB
1 07153U 73086DT  13296.08214727  .00000034  00000-0  61090-3 0  2070
2 07153 101.8963 330.8896 0032708 053.0198 331.8179 12.35252728800376
